{"fetched_at":"2026-07-12T07:15:53.079Z","source":"https://celestrak.org/NORAD/elements/gp.php?NAME=PLEIADES&FORMAT=JSON","constellation":"pleiades","records":[{"OBJECT_NAME":"PLEIADES 1A","OBJECT_ID":"2011-076F","EPOCH":"2026-07-11T23:16:37.271712","CLASSIFICATION_TYPE":"U","MEAN_MOTION":14.58545288,"ECCENTRICITY":0.00017149,"INCLINATION":98.1973,"RA_OF_ASC_NODE":267.7386,"ARG_OF_PERICENTER":81.238,"MEAN_ANOMALY":34.2461,"EPHEMERIS_TYPE":0,"NORAD_CAT_ID":38012,"ELEMENT_SET_NO":999,"REV_AT_EPOCH":77560,"BSTAR":0.000013619243,"MEAN_MOTION_DOT":1.8e-7,"MEAN_MOTION_DDOT":0},{"OBJECT_NAME":"PLEIADES 1B","OBJECT_ID":"2012-068A","EPOCH":"2026-07-11T23:33:50.569920","CLASSIFICATION_TYPE":"U","MEAN_MOTION":14.58532716,"ECCENTRICITY":0.00016319,"INCLINATION":98.1943,"RA_OF_ASC_NODE":267.6912,"ARG_OF_PERICENTER":79.8826,"MEAN_ANOMALY":280.2557,"EPHEMERIS_TYPE":0,"NORAD_CAT_ID":39019,"ELEMENT_SET_NO":999,"REV_AT_EPOCH":72446,"BSTAR":0.000005351858,"MEAN_MOTION_DOT":-2.1e-7,"MEAN_MOTION_DDOT":0}]}
